[{"OBJECT_NAME":"GEOSCAN 3 (RS92S3)","OBJECT_ID":"2025-155T","EPOCH":"2026-03-09T22:52:10.587648","MEAN_MOTION":15.31696739,"ECCENTRICITY":0.00068078,"INCLINATION":97.4455,"RA_OF_ASC_NODE":37.9971,"ARG_OF_PERICENTER":154.1387,"MEAN_ANOMALY":206.0196,"EPHEMERIS_TYPE":0,"CLASSIFICATION_TYPE":"U","NORAD_CAT_ID":64893,"ELEMENT_SET_NO":999,"REV_AT_EPOCH":6564,"BSTAR":0.00078414081,"MEAN_MOTION_DOT":0.00023985,"MEAN_MOTION_DDOT":0},{"OBJECT_NAME":"STARLINK-34819","OBJECT_ID":"2025-161AB","EPOCH":"2026-03-09T22:38:59.390016","MEAN_MOTION":15.30207515,"ECCENTRICITY":0.000106,"INCLINATION":53.161,"RA_OF_ASC_NODE":293.3789,"ARG_OF_PERICENTER":78.2475,"MEAN_ANOMALY":281.8644,"EPHEMERIS_TYPE":0,"CLASSIFICATION_TYPE":"U","NORAD_CAT_ID":65040,"ELEMENT_SET_NO":999,"REV_AT_EPOCH":3426,"BSTAR":0.0012268651,"MEAN_MOTION_DOT":0.00036162,"MEAN_MOTION_DDOT":0}]
